0 COSMOS 1823 DEB
1 18752U 87020AD  13282.54168066 -.00000009  00000-0  41976-4 0  1096
2 18752 073.9210 329.0879 0059689 151.3420 279.3455 12.59496605186117
0 COSMOS 1823 DEB
1 18752U 87020AD  13287.47632755  .00000029  00000-0  26546-3 0  1113
2 18752 073.9201 322.3688 0059503 143.8064 334.0129 12.59497094186734
0 COSMOS 1823 DEB
1 18752U 87020AD  13289.54168758  .00000023  00000-0  22623-3 0  1127
2 18752 073.9198 319.5560 0059426 140.6386 338.7813 12.59497669186999
0 COSMOS 1823 DEB
1 18752U 87020AD  13292.14953736  .00000024  00000-0  23273-3 0  1139
2 18752 073.9196 316.0043 0059362 136.6416 283.3132 12.59498149187324
0 COSMOS 1823 DEB
1 18752U 87020AD  13295.49906785  .00000077  00000-0  54023-3 0  1148
2 18752 073.9196 311.4427 0059257 131.4659 350.8298 12.59498577187748
